{"type": "FeatureCollection", "features": [ {"type": "Feature", "properties": {"norad_id": 35602, "name": "COSMOS 2251 DEB", "group": "cosmos-2251-debris", "lat": -73.19003024839348, "lon": 89.54606877397885, "alt_km": 427.4193602107789, "timestamp": "2025-12-22T09:53:37.796392+00:00", "meta": {"OBJECT_NAME": "COSMOS 2251 DEB", "OBJECT_ID": "1993-036AMV", "EPOCH": "2025-12-19T12:02:08.754144", "MEAN_MOTION": 15.3532305, "ECCENTRICITY": 0.0089059, "INCLINATION": 73.9924, "RA_OF_ASC_NODE": 167.6664, "ARG_OF_PERICENTER": 231.9555, "MEAN_ANOMALY": 160.7824, "EPHEMERIS_TYPE": 0, "CLASSIFICATION_TYPE": "U", "NORAD_CAT_ID": 35602, "ELEMENT_SET_NO": 999, "REV_AT_EPOCH": 90195, "BSTAR": 0.00042337, "MEAN_MOTION_DOT": 0.00016543, "MEAN_MOTION_DDOT": 0}, "tle": {"line1": "1 35602U 93036AMV 25353.50149021  .00016543  00000+0  42337-3 0  9997", "line2": "2 35602  73.9924 167.6664 0089059 231.9555 160.7824 15.35323050901958"}}, "geometry": {"type": "Point", "coordinates": [89.54606877397885, -73.19003024839348]}}, {"type": "Feature", "properties": {"norad_id": 35605, "name": "COSMOS 2251 DEB", "group": "cosmos-2251-debris", "lat": -8.8794591796825, "lon": -46.953799777530506, "alt_km": 461.20328665642774, "timestamp": "2025-12-22T09:53:37.796402+00:00", "meta": {"OBJECT_NAME": "COSMOS 2251 DEB", "OBJECT_ID": "1993-036AMY", "EPOCH": "2025-12-16T05:30:02.725344", "MEAN_MOTION": 15.35586787, "ECCENTRICITY": 0.00242235, "INCLINATION": 73.8701, "RA_OF_ASC_NODE": 329.0606, "ARG_OF_PERICENTER": 257.5437, "MEAN_ANOMALY": 102.3057, "EPHEMERIS_TYPE": 0, "CLASSIFICATION_TYPE": "U", "NORAD_CAT_ID": 35605, "ELEMENT_SET_NO": 999, "REV_AT_EPOCH": 66025, "BSTAR": 0.0050760725, "MEAN_MOTION_DOT": 0.00181517, "MEAN_MOTION_DDOT": 0}, "tle": {"line1": "1 35605U 93036AMY 25350.22919821  .00181517  00000+0  50761-2 0  9992", "line2": "2 35605  73.8701 329.0606 0024223 257.5437 102.3057 15.35586787660251"}}, "geometry": {"type": "Point", "coordinates": [-46.953799777530506, -8.8794591796825]}}, {"type": "Feature", "properties": {"norad_id": 35606, "name": "COSMOS 2251 DEB", "group": "cosmos-2251-debris", "lat": 72.6389976473443, "lon": 63.69779988571212, "alt_km": 1234.3332043115279, "timestamp": "2025-12-22T09:53:37.796411+00:00", "meta": {"OBJECT_NAME": "COSMOS 2251 DEB", "OBJECT_ID": "1993-036AMZ", "EPOCH": "2025-12-21T17:20:03.796224", "MEAN_MOTION": 13.41218504, "ECCENTRICITY": 0.0456905, "INCLINATION": 73.8097, "RA_OF_ASC_NODE": 356.4786, "ARG_OF_PERICENTER": 200.8716, "MEAN_ANOMALY": 157.3195, "EPHEMERIS_TYPE": 0, "CLASSIFICATION_TYPE": "U", "NORAD_CAT_ID": 35606, "ELEMENT_SET_NO": 999, "REV_AT_EPOCH": 61160, "BSTAR": 0.00021606, "MEAN_MOTION_DOT": 1.99e-06, "MEAN_MOTION_DDOT": 0}, "tle": {"line1": "1 35606U 93036AMZ 25355.72226616  .00000199  00000+0  21606-3 0  9999", "line2": "2 35606  73.8097 356.4786 0456905 200.8716 157.3195 13.41218504611602"}}, "geometry": {"type": "Point", "coordinates": [63.69779988571212, 72.6389976473443]}}, {"type": "Feature", "properties": {"norad_id": 35611, "name": "COSMOS 2251 DEB", "group": "cosmos-2251-debris", "lat": 59.472166802465175, "lon": -48.6334872253924, "alt_km": 651.7255360776353, "timestamp": "2025-12-22T09:53:37.796421+00:00", "meta": {"OBJECT_NAME": "COSMOS 2251 DEB", "OBJECT_ID": "1993-036ANE", "EPOCH": "2025-12-19T11:16:40.848672", "MEAN_MOTION": 14.73020971, "ECCENTRICITY": 0.0021353, "INCLINATION": 74.0189, "RA_OF_ASC_NODE": 166.1787, "ARG_OF_PERICENTER": 238.9125, "MEAN_ANOMALY": 120.9952, "EPHEMERIS_TYPE": 0, "CLASSIFICATION_TYPE": "U", "NORAD_CAT_ID": 35611, "ELEMENT_SET_NO": 999, "REV_AT_EPOCH": 87389, "BSTAR": 0.0015718, "MEAN_MOTION_DOT": 0.0001012, "MEAN_MOTION_DDOT": 0}, "tle": {"line1": "1 35611U 93036ANE 25353.46991723  .00010120  00000+0  15718-2 0  9993", "line2": "2 35611  74.0189 166.1787 0021353 238.9125 120.9952 14.73020971873894"}}, "geometry": {"type": "Point", "coordinates": [-48.6334872253924, 59.472166802465175]}}, {"type": "Feature", "properties": {"norad_id": 35614, "name": "COSMOS 2251 DEB", "group": "cosmos-2251-debris", "lat": 28.338990370203454, "lon": -42.36840264414904, "alt_km": 703.2877210866127, "timestamp": "2025-12-22T09:53:37.796431+00:00", "meta": {"OBJECT_NAME": "COSMOS 2251 DEB", "OBJECT_ID": "1993-036ANH", "EPOCH": "2025-12-22T03:12:41.031936", "MEAN_MOTION": 14.67087012, "ECCENTRICITY": 0.0075147, "INCLINATION": 73.9594, "RA_OF_ASC_NODE": 309.2449, "ARG_OF_PERICENTER": 161.2934, "MEAN_ANOMALY": 199.1024, "EPHEMERIS_TYPE": 0, "CLASSIFICATION_TYPE": "U", "NORAD_CAT_ID": 35614, "ELEMENT_SET_NO": 999, "REV_AT_EPOCH": 87867, "BSTAR": 0.00074391, "MEAN_MOTION_DOT": 4.327e-05, "MEAN_MOTION_DDOT": 0}, "tle": {"line1": "1 35614U 93036ANH 25356.13380824  .00004327  00000+0  74391-3 0  9992", "line2": "2 35614  73.9594 309.2449 0075147 161.2934 199.1024 14.67087012878677"}}, "geometry": {"type": "Point", "coordinates": [-42.36840264414904, 28.338990370203454]}}, {"type": "Feature", "properties": {"norad_id": 35645, "name": "COSMOS 2251 DEB", "group": "cosmos-2251-debris", "lat": 73.19158437977454, "lon": 141.8025760961739, "alt_km": 770.8925884486061, "timestamp": "2025-12-22T09:53:37.796440+00:00", "meta": {"OBJECT_NAME": "COSMOS 2251 DEB", "OBJECT_ID": "1993-036ANL", "EPOCH": "2025-12-20T22:37:16.438368", "MEAN_MOTION": 14.45688702, "ECCENTRICITY": 0.0069769, "INCLINATION": 73.9649, "RA_OF_ASC_NODE": 72.3676, "ARG_OF_PERICENTER": 229.1797, "MEAN_ANOMALY": 130.3298, "EPHEMERIS_TYPE": 0, "CLASSIFICATION_TYPE": "U", "NORAD_CAT_ID": 35645, "ELEMENT_SET_NO": 999, "REV_AT_EPOCH": 86890, "BSTAR": 0.0012662, "MEAN_MOTION_DOT": 4.592e-05, "MEAN_MOTION_DDOT": 0}, "tle": {"line1": "1 35645U 93036ANL 25354.94255137  .00004592  00000+0  12662-2 0  9997", "line2": "2 35645  73.9649  72.3676 0069769 229.1797 130.3298 14.45688702868900"}}, "geometry": {"type": "Point", "coordinates": [141.8025760961739, 73.19158437977454]}}, {"type": "Feature", "properties": {"norad_id": 35646, "name": "COSMOS 2251 DEB", "group": "cosmos-2251-debris", "lat": -35.86324621446445, "lon": 28.608356740208325, "alt_km": 1450.9583571368912, "timestamp": "2025-12-22T09:53:37.796450+00:00", "meta": {"OBJECT_NAME": "COSMOS 2251 DEB", "OBJECT_ID": "1993-036ANM", "EPOCH": "2025-12-20T21:21:16.108128", "MEAN_MOTION": 13.40831039, "ECCENTRICITY": 0.0456194, "INCLINATION": 73.8716, "RA_OF_ASC_NODE": 43.0968, "ARG_OF_PERICENTER": 151.9118, "MEAN_ANOMALY": 23.6706, "EPHEMERIS_TYPE": 0, "CLASSIFICATION_TYPE": "U", "NORAD_CAT_ID": 35646, "ELEMENT_SET_NO": 999, "REV_AT_EPOCH": 81967, "BSTAR": 0.00033731, "MEAN_MOTION_DOT": 3.24e-06, "MEAN_MOTION_DDOT": 0}, "tle": {"line1": "1 35646U 93036ANM 25354.88976977  .00000324  00000+0  33731-3 0  9993", "line2": "2 35646  73.8716  43.0968 0456194 151.9118  23.6706 13.40831039819670"}}, "geometry": {"type": "Point", "coordinates": [28.608356740208325, -35.86324621446445]}}, {"type": "Feature", "properties": {"norad_id": 35647, "name": "COSMOS 2251 DEB", "group": "cosmos-2251-debris", "lat": 73.8572499654334, "lon": -1.6379077302722924, "alt_km": 729.9729727050999, "timestamp": "2025-12-22T09:53:37.796460+00:00", "meta": {"OBJECT_NAME": "COSMOS 2251 DEB", "OBJECT_ID": "1993-036ANN", "EPOCH": "2025-12-20T12:35:18.566880", "MEAN_MOTION": 14.43670529, "ECCENTRICITY": 0.0045979, "INCLINATION": 74.0241, "RA_OF_ASC_NODE": 280.0829, "ARG_OF_PERICENTER": 17.3675, "MEAN_ANOMALY": 342.9041, "EPHEMERIS_TYPE": 0, "CLASSIFICATION_TYPE": "U", "NORAD_CAT_ID": 35647, "ELEMENT_SET_NO": 999, "REV_AT_EPOCH": 67776, "BSTAR": 0.00050731, "MEAN_MOTION_DOT": 1.718e-05, "MEAN_MOTION_DDOT": 0}, "tle": {"line1": "1 35647U 93036ANN 25354.52452045  .00001718  00000+0  50731-3 0  9997", "line2": "2 35647  74.0241 280.0829 0045979  17.3675 342.9041 14.43670529677764"}}, "geometry": {"type": "Point", "coordinates": [-1.6379077302722924, 73.8572499654334]}}, {"type": "Feature", "properties": {"norad_id": 35650, "name": "COSMOS 2251 DEB", "group": "cosmos-2251-debris", "lat": -32.17600763578243, "lon": -169.90728445122397, "alt_km": 633.3145610343072, "timestamp": "2025-12-22T09:53:37.796470+00:00", "meta": {"OBJECT_NAME": "COSMOS 2251 DEB", "OBJECT_ID": "1993-036ANR", "EPOCH": "2025-12-21T00:43:00.521760", "MEAN_MOTION": 14.83815616, "ECCENTRICITY": 0.00149589, "INCLINATION": 74.045, "RA_OF_ASC_NODE": 2.46, "ARG_OF_PERICENTER": 46.0258, "MEAN_ANOMALY": 346.2318, "EPHEMERIS_TYPE": 0, "CLASSIFICATION_TYPE": "U", "NORAD_CAT_ID": 35650, "ELEMENT_SET_NO": 999, "REV_AT_EPOCH": 87757, "BSTAR": 0.0010844283, "MEAN_MOTION_DOT": 8.984e-05, "MEAN_MOTION_DDOT": 0}, "tle": {"line1": "1 35650U 93036ANR 25355.02986715  .00008984  00000+0  10844-2 0  9995", "line2": "2 35650  74.0450   2.4600 0014958  46.0258 346.2318 14.83815616877579"}}, "geometry": {"type": "Point", "coordinates": [-169.90728445122397, -32.17600763578243]}}, {"type": "Feature", "properties": {"norad_id": 35660, "name": "COSMOS 2251 DEB", "group": "cosmos-2251-debris", "lat": 51.73529580638812, "lon": 136.34398184916733, "alt_km": 733.7569593528106, "timestamp": "2025-12-22T09:53:37.796480+00:00", "meta": {"OBJECT_NAME": "COSMOS 2251 DEB", "OBJECT_ID": "1993-036APB", "EPOCH": "2025-12-22T02:10:51.745152", "MEAN_MOTION": 14.49959651, "ECCENTRICITY": 0.002078, "INCLINATION": 74.0442, "RA_OF_ASC_NODE": 115.6794, "ARG_OF_PERICENTER": 262.6258, "MEAN_ANOMALY": 275.2762, "EPHEMERIS_TYPE": 0, "CLASSIFICATION_TYPE": "U", "NORAD_CAT_ID": 35660, "ELEMENT_SET_NO": 999, "REV_AT_EPOCH": 66006, "BSTAR": 0.00046816, "MEAN_MOTION_DOT": 1.789e-05, "MEAN_MOTION_DDOT": 0}, "tle": {"line1": "1 35660U 93036APB 25356.09087668  .00001789  00000+0  46816-3 0  9998", "line2": "2 35660  74.0442 115.6794 0020780 262.6258 275.2762 14.49959651660066"}}, "geometry": {"type": "Point", "coordinates": [136.34398184916733, 51.73529580638812]}}]}